[{"OBJECT_NAME":"FLORIPASAT-1","OBJECT_ID":"2019-093G","EPOCH":"2026-03-09T23:35:55.317696","MEAN_MOTION":15.02721611,"ECCENTRICITY":0.00131238,"INCLINATION":97.7908,"RA_OF_ASC_NODE":162.596,"ARG_OF_PERICENTER":52.6692,"MEAN_ANOMALY":307.5727,"EPHEMERIS_TYPE":0,"CLASSIFICATION_TYPE":"U","NORAD_CAT_ID":44885,"ELEMENT_SET_NO":999,"REV_AT_EPOCH":33774,"BSTAR":0.00066057159,"MEAN_MOTION_DOT":8.782e-5,"MEAN_MOTION_DDOT":0},{"OBJECT_NAME":"STARLINK-5364","OBJECT_ID":"2023-015AU","EPOCH":"2026-03-09T09:43:42.168288","MEAN_MOTION":15.02533328,"ECCENTRICITY":0.00010022,"INCLINATION":43.0078,"RA_OF_ASC_NODE":314.3098,"ARG_OF_PERICENTER":282.5462,"MEAN_ANOMALY":77.5269,"EPHEMERIS_TYPE":0,"CLASSIFICATION_TYPE":"U","NORAD_CAT_ID":55491,"ELEMENT_SET_NO":999,"REV_AT_EPOCH":17086,"BSTAR":-4.0320208e-5,"MEAN_MOTION_DOT":-7.48e-6,"MEAN_MOTION_DDOT":0}]
